{
  "type": "FeatureCollection",
  "features": [
    {
      "type": "Feature",
      "properties": {
        "norad_id": 43719,
        "name": "HYSIS",
        "group": "resource",
        "lat": 46.03382530279337,
        "lon": -123.91217907772779,
        "alt_km": 629.4286427238976,
        "timestamp": "2025-12-10T16:57:11.292393+00:00",
        "meta_object_name": "HYSIS",
        "meta_object_id": "2018-096A",
        "meta_epoch": "2025-12-10T11:28:48.525888",
        "meta_mean_motion": 14.78635714,
        "meta_eccentricity": 0.0001501,
        "meta_inclination": 98.0095,
        "meta_ra_of_asc_node": 47.4669,
        "meta_arg_of_pericenter": 55.5076,
        "meta_mean_anomaly": 304.6276,
        "meta_ephemeris_type": 0,
        "meta_classification_type": "U",
        "meta_norad_cat_id": 43719,
        "meta_element_set_no": 999,
        "meta_rev_at_epoch": 37953,
        "meta_bstar": 0.00031658,
        "meta_mean_motion_dot": 2.267e-05,
        "meta_mean_motion_ddot": 0,
        "tle_line1": "1 43719U 18096A   25344.47833942  .00002267  00000+0  31658-3 0  9998",
        "tle_line2": "2 43719  98.0095  47.4669 0001501  55.5076 304.6276 14.78635714379539"
      },
      "geometry": {
        "type": "Point",
        "coordinates": [
          -123.91217907772779,
          46.03382530279337
        ]
      }
    },
    {
      "type": "Feature",
      "properties": {
        "norad_id": 43783,
        "name": "KAZSTSAT",
        "group": "resource",
        "lat": -37.863633401074644,
        "lon": -165.8649544394552,
        "alt_km": 577.5317117442473,
        "timestamp": "2025-12-10T16:57:11.292403+00:00",
        "meta_object_name": "KAZSTSAT",
        "meta_object_id": "2018-099AB",
        "meta_epoch": "2025-12-10T07:58:27.236352",
        "meta_mean_motion": 14.99341597,
        "meta_eccentricity": 0.0006014,
        "meta_inclination": 97.4558,
        "meta_ra_of_asc_node": 19.6206,
        "meta_arg_of_pericenter": 340.3346,
        "meta_mean_anomaly": 19.7645,
        "meta_ephemeris_type": 0,
        "meta_classification_type": "U",
        "meta_norad_cat_id": 43783,
        "meta_element_set_no": 999,
        "meta_rev_at_epoch": 38300,
        "meta_bstar": 0.00019535,
        "meta_mean_motion_dot": 2.332e-05,
        "meta_mean_motion_ddot": 0,
        "tle_line1": "1 43783U 18099AB  25344.33225968  .00002332  00000+0  19535-3 0  9993",
        "tle_line2": "2 43783  97.4558  19.6206 0006014 340.3346  19.7645 14.99341597383001"
      },
      "geometry": {
        "type": "Point",
        "coordinates": [
          -165.8649544394552,
          -37.863633401074644
        ]
      }
    },
    {
      "type": "Feature",
      "properties": {
        "norad_id": 43831,
        "name": "SAUDISAT 5A",
        "group": "resource",
        "lat": 76.59636755381842,
        "lon": 12.214000704489171,
        "alt_km": 473.63266378128355,
        "timestamp": "2025-12-10T16:57:11.292413+00:00",
        "meta_object_name": "SAUDISAT 5A",
        "meta_object_id": "2018-102A",
        "meta_epoch": "2025-12-10T10:18:47.406240",
        "meta_mean_motion": 15.25610132,
        "meta_eccentricity": 0.0011813,
        "meta_inclination": 97.3352,
        "meta_ra_of_asc_node": 44.665,
        "meta_arg_of_pericenter": 83.245,
        "meta_mean_anomaly": 277.0132,
        "meta_ephemeris_type": 0,
        "meta_classification_type": "U",
        "meta_norad_cat_id": 43831,
        "meta_element_set_no": 999,
        "meta_rev_at_epoch": 38687,
        "meta_bstar": 0.00035817,
        "meta_mean_motion_dot": 9.051e-05,
        "meta_mean_motion_ddot": 0,
        "tle_line1": "1 43831U 18102A   25344.42971535  .00009051  00000+0  35817-3 0  9996",
        "tle_line2": "2 43831  97.3352  44.6650 0011813  83.2450 277.0132 15.25610132386871"
      },
      "geometry": {
        "type": "Point",
        "coordinates": [
          12.214000704489171,
          76.59636755381842
        ]
      }
    },
    {
      "type": "Feature",
      "properties": {
        "norad_id": 43833,
        "name": "SAUDISAT 5B",
        "group": "resource",
        "lat": 50.79862195228834,
        "lon": -123.22941300808101,
        "alt_km": 477.06097023826715,
        "timestamp": "2025-12-10T16:57:11.292425+00:00",
        "meta_object_name": "SAUDISAT 5B",
        "meta_object_id": "2018-102C",
        "meta_epoch": "2025-12-10T10:05:51.497952",
        "meta_mean_motion": 15.25962974,
        "meta_eccentricity": 0.0012513,
        "meta_inclination": 97.3447,
        "meta_ra_of_asc_node": 47.3907,
        "meta_arg_of_pericenter": 85.6786,
        "meta_mean_anomaly": 274.5882,
        "meta_ephemeris_type": 0,
        "meta_classification_type": "U",
        "meta_norad_cat_id": 43833,
        "meta_element_set_no": 999,
        "meta_rev_at_epoch": 38698,
        "meta_bstar": 0.00033765,
        "meta_mean_motion_dot": 8.621e-05,
        "meta_mean_motion_ddot": 0,
        "tle_line1": "1 43833U 18102C   25344.42073493  .00008621  00000+0  33765-3 0  9996",
        "tle_line2": "2 43833  97.3447  47.3907 0012513  85.6786 274.5882 15.25962974386989"
      },
      "geometry": {
        "type": "Point",
        "coordinates": [
          -123.22941300808101,
          50.79862195228834
        ]
      }
    },
    {
      "type": "Feature",
      "properties": {
        "norad_id": 44622,
        "name": "GAOFEN-10R",
        "group": "resource",
        "lat": 26.93533035840044,
        "lon": -71.90743748271032,
        "alt_km": 614.3051944884382,
        "timestamp": "2025-12-10T16:57:11.292435+00:00",
        "meta_object_name": "GAOFEN-10R",
        "meta_object_id": "2019-066A",
        "meta_epoch": "2025-12-10T11:58:19.954848",
        "meta_mean_motion": 14.82779979,
        "meta_eccentricity": 0.000798,
        "meta_inclination": 98.0276,
        "meta_ra_of_asc_node": 291.9963,
        "meta_arg_of_pericenter": 48.2282,
        "meta_mean_anomaly": 311.9611,
        "meta_ephemeris_type": 0,
        "meta_classification_type": "U",
        "meta_norad_cat_id": 44622,
        "meta_element_set_no": 999,
        "meta_rev_at_epoch": 33441,
        "meta_bstar": 0.00033745,
        "meta_mean_motion_dot": 2.675e-05,
        "meta_mean_motion_ddot": 0,
        "tle_line1": "1 44622U 19066A   25344.49884207  .00002675  00000+0  33745-3 0  9994",
        "tle_line2": "2 44622  98.0276 291.9963 0007980  48.2282 311.9611 14.82779979334411"
      },
      "geometry": {
        "type": "Point",
        "coordinates": [
          -71.90743748271032,
          26.93533035840044
        ]
      }
    },
    {
      "type": "Feature",
      "properties": {
        "norad_id": 44804,
        "name": "CARTOSAT-3",
        "group": "resource",
        "lat": -73.94255679561321,
        "lon": 71.3887687631791,
        "alt_km": 524.5918814097186,
        "timestamp": "2025-12-10T16:57:11.292447+00:00",
        "meta_object_name": "CARTOSAT-3",
        "meta_object_id": "2019-081A",
        "meta_epoch": "2025-12-10T12:32:41.037216",
        "meta_mean_motion": 15.19340059,
        "meta_eccentricity": 0.0013965,
        "meta_inclination": 97.458,
        "meta_ra_of_asc_node": 44.1346,
        "meta_arg_of_pericenter": 93.6903,
        "meta_mean_anomaly": 266.5929,
        "meta_ephemeris_type": 0,
        "meta_classification_type": "U",
        "meta_norad_cat_id": 44804,
        "meta_element_set_no": 999,
        "meta_rev_at_epoch": 33482,
        "meta_bstar": 0.00031446,
        "meta_mean_motion_dot": 6.594e-05,
        "meta_mean_motion_ddot": 0,
        "tle_line1": "1 44804U 19081A   25344.52269719  .00006594  00000+0  31446-3 0  9992",
        "tle_line2": "2 44804  97.4580  44.1346 0013965  93.6903 266.5929 15.19340059334827"
      },
      "geometry": {
        "type": "Point",
        "coordinates": [
          71.3887687631791,
          -73.94255679561321
        ]
      }
    },
    {
      "type": "Feature",
      "properties": {
        "norad_id": 44819,
        "name": "GAOFEN-12 01",
        "group": "resource",
        "lat": -49.43654663739936,
        "lon": 0.27082375476389114,
        "alt_km": 633.7632690913542,
        "timestamp": "2025-12-10T16:57:11.292457+00:00",
        "meta_object_name": "GAOFEN-12 01",
        "meta_object_id": "2019-082A",
        "meta_epoch": "2025-12-10T12:18:47.463840",
        "meta_mean_motion": 14.80653316,
        "meta_eccentricity": 0.0001214,
        "meta_inclination": 97.8127,
        "meta_ra_of_asc_node": 350.8525,
        "meta_arg_of_pericenter": 248.519,
        "meta_mean_anomaly": 111.5893,
        "meta_ephemeris_type": 0,
        "meta_classification_type": "U",
        "meta_norad_cat_id": 44819,
        "meta_element_set_no": 999,
        "meta_rev_at_epoch": 32617,
        "meta_bstar": 0.00011606,
        "meta_mean_motion_dot": 8.41e-06,
        "meta_mean_motion_ddot": 0,
        "tle_line1": "1 44819U 19082A   25344.51304935  .00000841  00000+0  11606-3 0  9993",
        "tle_line2": "2 44819  97.8127 350.8525 0001214 248.5190 111.5893 14.80653316326171"
      },
      "geometry": {
        "type": "Point",
        "coordinates": [
          0.27082375476389114,
          -49.43654663739936
        ]
      }
    }
  ]
}